{"type": "FeatureCollection", "features": [ {"type": "Feature", "properties": {"norad_id": 33825, "name": "COSMOS 2251 DEB", "group": "cosmos-2251-debris", "lat": 32.009423612101834, "lon": 171.28160360661124, "alt_km": 719.1185336169638, "timestamp": "2025-12-26T04:40:06.177556+00:00", "meta": {"OBJECT_NAME": "COSMOS 2251 DEB", "OBJECT_ID": "1993-036BS", "EPOCH": "2025-12-25T10:21:21.180960", "MEAN_MOTION": 14.69888847, "ECCENTRICITY": 0.0085127, "INCLINATION": 73.9851, "RA_OF_ASC_NODE": 3.1078, "ARG_OF_PERICENTER": 327.2381, "MEAN_ANOMALY": 103.2695, "EPHEMERIS_TYPE": 0, "CLASSIFICATION_TYPE": "U", "NORAD_CAT_ID": 33825, "ELEMENT_SET_NO": 999, "REV_AT_EPOCH": 89066, "BSTAR": 0.001092, "MEAN_MOTION_DOT": 6.88e-05, "MEAN_MOTION_DDOT": 0}, "tle": {"line1": "1 33825U 93036BS  25359.43149515  .00006880  00000+0  10920-2 0  9993", "line2": "2 33825  73.9851   3.1078 0085127 327.2381 103.2695 14.69888847890662"}}, "geometry": {"type": "Point", "coordinates": [171.28160360661124, 32.009423612101834]}}, {"type": "Feature", "properties": {"norad_id": 33826, "name": "COSMOS 2251 DEB", "group": "cosmos-2251-debris", "lat": -57.828938101820356, "lon": -128.40425241898433, "alt_km": 785.0947509643402, "timestamp": "2025-12-26T04:40:06.177567+00:00", "meta": {"OBJECT_NAME": "COSMOS 2251 DEB", "OBJECT_ID": "1993-036BT", "EPOCH": "2025-12-25T13:15:18.325152", "MEAN_MOTION": 14.51775833, "ECCENTRICITY": 0.0082507, "INCLINATION": 74.0639, "RA_OF_ASC_NODE": 25.7871, "ARG_OF_PERICENTER": 65.796, "MEAN_ANOMALY": 60.6536, "EPHEMERIS_TYPE": 0, "CLASSIFICATION_TYPE": "U", "NORAD_CAT_ID": 33826, "ELEMENT_SET_NO": 999, "REV_AT_EPOCH": 87955, "BSTAR": 0.00048037, "MEAN_MOTION_DOT": 1.99e-05, "MEAN_MOTION_DDOT": 0}, "tle": {"line1": "1 33826U 93036BT  25359.55229543  .00001990  00000+0  48037-3 0  9995", "line2": "2 33826  74.0639  25.7871 0082507  65.7960  60.6536 14.51775833879552"}}, "geometry": {"type": "Point", "coordinates": [-128.40425241898433, -57.828938101820356]}}, {"type": "Feature", "properties": {"norad_id": 33828, "name": "COSMOS 2251 DEB", "group": "cosmos-2251-debris", "lat": 38.136935542065544, "lon": 20.090058629227805, "alt_km": 757.8959712413953, "timestamp": "2025-12-26T04:40:06.177578+00:00", "meta": {"OBJECT_NAME": "COSMOS 2251 DEB", "OBJECT_ID": "1993-036BV", "EPOCH": "2025-12-25T16:39:34.625664", "MEAN_MOTION": 14.44368685, "ECCENTRICITY": 0.00295164, "INCLINATION": 74.0449, "RA_OF_ASC_NODE": 214.0006, "ARG_OF_PERICENTER": 284.9434, "MEAN_ANOMALY": 134.4998, "EPHEMERIS_TYPE": 0, "CLASSIFICATION_TYPE": "U", "NORAD_CAT_ID": 33828, "ELEMENT_SET_NO": 999, "REV_AT_EPOCH": 88500, "BSTAR": 0.00038885129, "MEAN_MOTION_DOT": 1.319e-05, "MEAN_MOTION_DDOT": 0}, "tle": {"line1": "1 33828U 93036BV  25359.69415076  .00001319  00000+0  38885-3 0  9995", "line2": "2 33828  74.0449 214.0006 0029516 284.9434 134.4998 14.44368685885002"}}, "geometry": {"type": "Point", "coordinates": [20.090058629227805, 38.136935542065544]}}, {"type": "Feature", "properties": {"norad_id": 33830, "name": "COSMOS 2251 DEB", "group": "cosmos-2251-debris", "lat": 25.398997454535916, "lon": 16.16952177732871, "alt_km": 666.9552063941637, "timestamp": "2025-12-26T04:40:06.177588+00:00", "meta": {"OBJECT_NAME": "COSMOS 2251 DEB", "OBJECT_ID": "1993-036BX", "EPOCH": "2025-12-25T23:48:21.449952", "MEAN_MOTION": 14.77033889, "ECCENTRICITY": 0.00428243, "INCLINATION": 74.0307, "RA_OF_ASC_NODE": 204.3812, "ARG_OF_PERICENTER": 321.7877, "MEAN_ANOMALY": 194.8716, "EPHEMERIS_TYPE": 0, "CLASSIFICATION_TYPE": "U", "NORAD_CAT_ID": 33830, "ELEMENT_SET_NO": 999, "REV_AT_EPOCH": 89667, "BSTAR": 0.00071485791, "MEAN_MOTION_DOT": 5.088e-05, "MEAN_MOTION_DDOT": 0}, "tle": {"line1": "1 33830U 93036BX  25359.99191493  .00005088  00000+0  71486-3 0  9996", "line2": "2 33830  74.0307 204.3812 0042824 321.7877 194.8716 14.77033889896677"}}, "geometry": {"type": "Point", "coordinates": [16.16952177732871, 25.398997454535916]}}, {"type": "Feature", "properties": {"norad_id": 33832, "name": "COSMOS 2251 DEB", "group": "cosmos-2251-debris", "lat": 40.676427352603135, "lon": -9.925372393570306, "alt_km": 682.7424126817732, "timestamp": "2025-12-26T04:40:06.177598+00:00", "meta": {"OBJECT_NAME": "COSMOS 2251 DEB", "OBJECT_ID": "1993-036BZ", "EPOCH": "2025-12-25T23:49:00.241824", "MEAN_MOTION": 14.60802512, "ECCENTRICITY": 0.00239956, "INCLINATION": 74.0532, "RA_OF_ASC_NODE": 184.6855, "ARG_OF_PERICENTER": 213.2053, "MEAN_ANOMALY": 301.6425, "EPHEMERIS_TYPE": 0, "CLASSIFICATION_TYPE": "U", "NORAD_CAT_ID": 33832, "ELEMENT_SET_NO": 999, "REV_AT_EPOCH": 88618, "BSTAR": 0.001406872, "MEAN_MOTION_DOT": 6.876e-05, "MEAN_MOTION_DDOT": 0}, "tle": {"line1": "1 33832U 93036BZ  25359.99236391  .00006876  00000+0  14069-2 0  9994", "line2": "2 33832  74.0532 184.6855 0023995 213.2053 301.6425 14.60802512886184"}}, "geometry": {"type": "Point", "coordinates": [-9.925372393570306, 40.676427352603135]}}, {"type": "Feature", "properties": {"norad_id": 33835, "name": "COSMOS 2251 DEB", "group": "cosmos-2251-debris", "lat": 46.59604610497565, "lon": 92.96531876487168, "alt_km": 671.5730023452452, "timestamp": "2025-12-26T04:40:06.177609+00:00", "meta": {"OBJECT_NAME": "COSMOS 2251 DEB", "OBJECT_ID": "1993-036CC", "EPOCH": "2025-12-25T15:59:34.374912", "MEAN_MOTION": 14.62370337, "ECCENTRICITY": 0.0053708, "INCLINATION": 74.0572, "RA_OF_ASC_NODE": 76.383, "ARG_OF_PERICENTER": 126.0837, "MEAN_ANOMALY": 24.3645, "EPHEMERIS_TYPE": 0, "CLASSIFICATION_TYPE": "U", "NORAD_CAT_ID": 33835, "ELEMENT_SET_NO": 999, "REV_AT_EPOCH": 88978, "BSTAR": 0.00092914, "MEAN_MOTION_DOT": 4.768e-05, "MEAN_MOTION_DDOT": 0}, "tle": {"line1": "1 33835U 93036CC  25359.66637008  .00004768  00000+0  92914-3 0  9995", "line2": "2 33835  74.0572  76.3830 0053708 126.0837  24.3645 14.62370337889786"}}, "geometry": {"type": "Point", "coordinates": [92.96531876487168, 46.59604610497565]}}, {"type": "Feature", "properties": {"norad_id": 33836, "name": "COSMOS 2251 DEB", "group": "cosmos-2251-debris", "lat": -16.155988344830764, "lon": 57.16714383082077, "alt_km": 641.3927714404763, "timestamp": "2025-12-26T04:40:06.177619+00:00", "meta": {"OBJECT_NAME": "COSMOS 2251 DEB", "OBJECT_ID": "1993-036CD", "EPOCH": "2025-12-25T16:41:26.318400", "MEAN_MOTION": 14.79832586, "ECCENTRICITY": 0.00229305, "INCLINATION": 73.9958, "RA_OF_ASC_NODE": 233.3824, "ARG_OF_PERICENTER": 81.6202, "MEAN_ANOMALY": 337.2002, "EPHEMERIS_TYPE": 0, "CLASSIFICATION_TYPE": "U", "NORAD_CAT_ID": 33836, "ELEMENT_SET_NO": 999, "REV_AT_EPOCH": 64280, "BSTAR": 0.0011289366, "MEAN_MOTION_DOT": 8.521e-05, "MEAN_MOTION_DDOT": 0}, "tle": {"line1": "1 33836U 93036CD  25359.69544350  .00008521  00000+0  11289-2 0  9992", "line2": "2 33836  73.9958 233.3824 0022930  81.6202 337.2002 14.79832586642806"}}, "geometry": {"type": "Point", "coordinates": [57.16714383082077, -16.155988344830764]}}, {"type": "Feature", "properties": {"norad_id": 33837, "name": "COSMOS 2251 DEB", "group": "cosmos-2251-debris", "lat": -29.762480274105016, "lon": -140.29746883127478, "alt_km": 708.9616269474182, "timestamp": "2025-12-26T04:40:06.177629+00:00", "meta": {"OBJECT_NAME": "COSMOS 2251 DEB", "OBJECT_ID": "1993-036CE", "EPOCH": "2025-12-25T12:48:03.042720", "MEAN_MOTION": 14.50727377, "ECCENTRICITY": 0.0035872, "INCLINATION": 74.0123, "RA_OF_ASC_NODE": 31.5108, "ARG_OF_PERICENTER": 251.2088, "MEAN_ANOMALY": 108.518, "EPHEMERIS_TYPE": 0, "CLASSIFICATION_TYPE": "U", "NORAD_CAT_ID": 33837, "ELEMENT_SET_NO": 999, "REV_AT_EPOCH": 88981, "BSTAR": 0.00025624, "MEAN_MOTION_DOT": 9.87e-06, "MEAN_MOTION_DDOT": 0}, "tle": {"line1": "1 33837U 93036CE  25359.53336855  .00000987  00000+0  25624-3 0  9992", "line2": "2 33837  74.0123  31.5108 0035872 251.2088 108.5180 14.50727377889812"}}, "geometry": {"type": "Point", "coordinates": [-140.29746883127478, -29.762480274105016]}}, {"type": "Feature", "properties": {"norad_id": 33838, "name": "COSMOS 2251 DEB", "group": "cosmos-2251-debris", "lat": -27.735941620008262, "lon": 115.95968849623613, "alt_km": 735.05425218448, "timestamp": "2025-12-26T04:40:06.177640+00:00", "meta": {"OBJECT_NAME": "COSMOS 2251 DEB", "OBJECT_ID": "1993-036CF", "EPOCH": "2025-12-25T19:25:45.372288", "MEAN_MOTION": 14.48403087, "ECCENTRICITY": 0.00274806, "INCLINATION": 74.0365, "RA_OF_ASC_NODE": 125.3369, "ARG_OF_PERICENTER": 245.478, "MEAN_ANOMALY": 238.8832, "EPHEMERIS_TYPE": 0, "CLASSIFICATION_TYPE": "U", "NORAD_CAT_ID": 33838, "ELEMENT_SET_NO": 999, "REV_AT_EPOCH": 88758, "BSTAR": 0.00045471121, "MEAN_MOTION_DOT": 1.684e-05, "MEAN_MOTION_DDOT": 0}, "tle": {"line1": "1 33838U 93036CF  25359.80955292  .00001684  00000+0  45471-3 0  9992", "line2": "2 33838  74.0365 125.3369 0027480 245.4780 238.8832 14.48403087887581"}}, "geometry": {"type": "Point", "coordinates": [115.95968849623613, -27.735941620008262]}}, {"type": "Feature", "properties": {"norad_id": 33839, "name": "COSMOS 2251 DEB", "group": "cosmos-2251-debris", "lat": -43.319912820983966, "lon": 164.96665355538215, "alt_km": 630.4144883428035, "timestamp": "2025-12-26T04:40:06.177650+00:00", "meta": {"OBJECT_NAME": "COSMOS 2251 DEB", "OBJECT_ID": "1993-036CG", "EPOCH": "2025-12-25T12:37:08.860800", "MEAN_MOTION": 14.64450648, "ECCENTRICITY": 0.0085374, "INCLINATION": 74.0373, "RA_OF_ASC_NODE": 181.9107, "ARG_OF_PERICENTER": 291.0826, "MEAN_ANOMALY": 99.0176, "EPHEMERIS_TYPE": 0, "CLASSIFICATION_TYPE": "U", "NORAD_CAT_ID": 33839, "ELEMENT_SET_NO": 999, "REV_AT_EPOCH": 89767, "BSTAR": 0.00022045, "MEAN_MOTION_DOT": 1.196e-05, "MEAN_MOTION_DDOT": 0}, "tle": {"line1": "1 33839U 93036CG  25359.52579700  .00001196  00000+0  22045-3 0  9998", "line2": "2 33839  74.0373 181.9107 0085374 291.0826  99.0176 14.64450648897675"}}, "geometry": {"type": "Point", "coordinates": [164.96665355538215, -43.319912820983966]}}]}